[{"OBJECT_NAME":"ONEWEB-0674","OBJECT_ID":"2023-029AP","EPOCH":"2026-05-22T05:23:09.550176","MEAN_MOTION":13.14502375,"ECCENTRICITY":0.0002116,"INCLINATION":87.8928,"RA_OF_ASC_NODE":294.8987,"ARG_OF_PERICENTER":87.6746,"MEAN_ANOMALY":272.4626,"EPHEMERIS_TYPE":0,"CLASSIFICATION_TYPE":"U","NORAD_CAT_ID":55833,"ELEMENT_SET_NO":999,"REV_AT_EPOCH":15600,"BSTAR":-0.00042898999999999997,"MEAN_MOTION_DOT":-1.46e-06,"MEAN_MOTION_DDOT":0.0},{"OBJECT_NAME":"ONEWEB-0675","OBJECT_ID":"2023-029AQ","EPOCH":"2026-05-22T04:51:00.188928","MEAN_MOTION":13.19725325,"ECCENTRICITY":0.0001726,"INCLINATION":87.9145,"RA_OF_ASC_NODE":310.1581,"ARG_OF_PERICENTER":102.8754,"MEAN_ANOMALY":257.2571,"EPHEMERIS_TYPE":0,"CLASSIFICATION_TYPE":"U","NORAD_CAT_ID":55834,"ELEMENT_SET_NO":999,"REV_AT_EPOCH":15549,"BSTAR":-7.9115e-05,"MEAN_MOTION_DOT":-1.9e-07,"MEAN_MOTION_DDOT":0.0},{"OBJECT_NAME":"ONEWEB-0720","OBJECT_ID":"2023-029AR","EPOCH":"2026-05-22T04:39:37.215936","MEAN_MOTION":13.19725822,"ECCENTRICITY":0.0001561,"INCLINATION":87.9145,"RA_OF_ASC_NODE":310.1603,"ARG_OF_PERICENTER":85.753,"MEAN_ANOMALY":274.3782,"EPHEMERIS_TYPE":0,"CLASSIFICATION_TYPE":"U","NORAD_CAT_ID":55835,"ELEMENT_SET_NO":999,"REV_AT_EPOCH":15541,"BSTAR":3.8682e-05,"MEAN_MOTION_DOT":2.8e-07,"MEAN_MOTION_DDOT":0.0},{"OBJECT_NAME":"ONEWEB-0537","OBJECT_ID":"2023-043A","EPOCH":"2026-05-22T04:53:13.357248","MEAN_MOTION":13.16596257,"ECCENTRICITY":0.0002088,"INCLINATION":87.9106,"RA_OF_ASC_NODE":233.9302,"ARG_OF_PERICENTER":106.641,"MEAN_ANOMALY":253.4951,"EPHEMERIS_TYPE":0,"CLASSIFICATION_TYPE":"U","NORAD_CAT_ID":56046,"ELEMENT_SET_NO":999,"REV_AT_EPOCH":15554,"BSTAR":3.976700000000001e-05,"MEAN_MOTION_DOT":2.8e-07,"MEAN_MOTION_DDOT":0.0},{"OBJECT_NAME":"ONEWEB-0538","OBJECT_ID":"2023-043B","EPOCH":"2026-05-21T17:47:29.883840","MEAN_MOTION":13.16595571,"ECCENTRICITY":0.0001797,"INCLINATION":87.9109,"RA_OF_ASC_NODE":234.0242,"ARG_OF_PERICENTER":106.145,"MEAN_ANOMALY":253.9879,"EPHEMERIS_TYPE":0,"CLASSIFICATION_TYPE":"U","NORAD_CAT_ID":56047,"ELEMENT_SET_NO":999,"REV_AT_EPOCH":15549,"BSTAR":-0.00031692,"MEAN_MOTION_DOT":-1.08e-06,"MEAN_MOTION_DDOT":0.0},{"OBJECT_NAME":"ONEWEB-0546","OBJECT_ID":"2023-043C","EPOCH":"2026-05-22T04:25:52.471776","MEAN_MOTION":13.16595985,"ECCENTRICITY":0.0002443,"INCLINATION":87.9108,"RA_OF_ASC_NODE":233.9359,"ARG_OF_PERICENTER":115.1412,"MEAN_ANOMALY":244.9972,"EPHEMERIS_TYPE":0,"CLASSIFICATION_TYPE":"U","NORAD_CAT_ID":56048,"ELEMENT_SET_NO":999,"REV_AT_EPOCH":15554,"BSTAR":0.00040213,"MEAN_MOTION_DOT":1.67e-06,"MEAN_MOTION_DDOT":0.0},{"OBJECT_NAME":"ONEWEB-0547","OBJECT_ID":"2023-043D","EPOCH":"2026-05-22T01:22:17.963040","MEAN_MOTION":13.21827647,"ECCENTRICITY":0.0001783,"INCLINATION":87.9251,"RA_OF_ASC_NODE":249.1726,"ARG_OF_PERICENTER":99.7954,"MEAN_ANOMALY":260.3382,"EPHEMERIS_TYPE":0,"CLASSIFICATION_TYPE":"U","NORAD_CAT_ID":56049,"ELEMENT_SET_NO":999,"REV_AT_EPOCH":15477,"BSTAR":0.00019567,"MEAN_MOTION_DOT":9.4e-07,"MEAN_MOTION_DDOT":0.0},{"OBJECT_NAME":"ONEWEB-0548","OBJECT_ID":"2023-043E","EPOCH":"2026-05-22T05:01:13.489824","MEAN_MOTION":13.16594379,"ECCENTRICITY":0.0002393,"INCLINATION":87.9103,"RA_OF_ASC_NODE":233.9279,"ARG_OF_PERICENTER":93.8599,"MEAN_ANOMALY":266.2806,"EPHEMERIS_TYPE":0,"CLASSIFICATION_TYPE":"U","NORAD_CAT_ID":56050,"ELEMENT_SET_NO":999,"REV_AT_EPOCH":15554,"BSTAR":-0.00010576,"MEAN_MOTION_DOT":-2.8e-07,"MEAN_MOTION_DDOT":0.0},{"OBJECT_NAME":"ONEWEB-0549","OBJECT_ID":"2023-043F","EPOCH":"2026-05-22T06:40:50.879424","MEAN_MOTION":13.21827695,"ECCENTRICITY":0.0001667,"INCLINATION":87.925,"RA_OF_ASC_NODE":249.1362,"ARG_OF_PERICENTER":106.781,"MEAN_ANOMALY":253.3507,"EPHEMERIS_TYPE":0,"CLASSIFICATION_TYPE":"U","NORAD_CAT_ID":56051,"ELEMENT_SET_NO":999,"REV_AT_EPOCH":15480,"BSTAR":-4.0301e-06,"MEAN_MOTION_DOT":1.1e-07,"MEAN_MOTION_DDOT":0.0},{"OBJECT_NAME":"ONEWEB-0550","OBJECT_ID":"2023-043G","EPOCH":"2026-05-22T06:21:28.370880","MEAN_MOTION":13.21824592,"ECCENTRICITY":0.0002114,"INCLINATION":87.9249,"RA_OF_ASC_NODE":249.1359,"ARG_OF_PERICENTER":95.7889,"MEAN_ANOMALY":264.3486,"EPHEMERIS_TYPE":0,"CLASSIFICATION_TYPE":"U","NORAD_CAT_ID":56052,"ELEMENT_SET_NO":999,"REV_AT_EPOCH":15480,"BSTAR":-9.5795e-06,"MEAN_MOTION_DOT":9e-08,"MEAN_MOTION_DDOT":0.0},{"OBJECT_NAME":"ONEWEB-0551","OBJECT_ID":"2023-043H","EPOCH":"2026-05-22T07:05:51.869472","MEAN_MOTION":13.15546852,"ECCENTRICITY":0.0001533,"INCLINATION":87.8987,"RA_OF_ASC_NODE":264.3862,"ARG_OF_PERICENTER":101.9137,"MEAN_ANOMALY":258.2165,"EPHEMERIS_TYPE":0,"CLASSIFICATION_TYPE":"U","NORAD_CAT_ID":56053,"ELEMENT_SET_NO":999,"REV_AT_EPOCH":15299,"BSTAR":-0.00013450999999999998,"MEAN_MOTION_DOT":-3.8e-07,"MEAN_MOTION_DDOT":0.0},{"OBJECT_NAME":"ONEWEB-0552","OBJECT_ID":"2023-043J","EPOCH":"2026-05-22T06:14:13.360704","MEAN_MOTION":13.2182528,"ECCENTRICITY":0.000186,"INCLINATION":87.9252,"RA_OF_ASC_NODE":249.143,"ARG_OF_PERICENTER":95.3315,"MEAN_ANOMALY":264.8032,"EPHEMERIS_TYPE":0,"CLASSIFICATION_TYPE":"U","NORAD_CAT_ID":56054,"ELEMENT_SET_NO":999,"REV_AT_EPOCH":15480,"BSTAR":0.00026775,"MEAN_MOTION_DOT":1.24e-06,"MEAN_MOTION_DDOT":0.0},{"OBJECT_NAME":"ONEWEB-0553","OBJECT_ID":"2023-043K","EPOCH":"2026-05-22T06:24:25.141824","MEAN_MOTION":13.16596168,"ECCENTRICITY":0.0002348,"INCLINATION":87.9106,"RA_OF_ASC_NODE":233.9205,"ARG_OF_PERICENTER":107.4455,"MEAN_ANOMALY":252.6932,"EPHEMERIS_TYPE":0,"CLASSIFICATION_TYPE":"U","NORAD_CAT_ID":56055,"ELEMENT_SET_NO":999,"REV_AT_EPOCH":15556,"BSTAR":0.0002223,"MEAN_MOTION_DOT":9.8e-07,"MEAN_MOTION_DDOT":0.0},{"OBJECT_NAME":"ONEWEB-0554","OBJECT_ID":"2023-043L","EPOCH":"2026-05-22T04:16:45.273792","MEAN_MOTION":13.16596129,"ECCENTRICITY":0.0002315,"INCLINATION":87.9105,"RA_OF_ASC_NODE":233.9475,"ARG_OF_PERICENTER":97.4083,"MEAN_ANOMALY":262.7311,"EPHEMERIS_TYPE":0,"CLASSIFICATION_TYPE":"U","NORAD_CAT_ID":56056,"ELEMENT_SET_NO":999,"REV_AT_EPOCH":15553,"BSTAR":0.00047443999999999996,"MEAN_MOTION_DOT":1.94e-06,"MEAN_MOTION_DDOT":0.0},{"OBJECT_NAME":"ONEWEB-0555","OBJECT_ID":"2023-043M","EPOCH":"2026-05-22T05:11:29.337792","MEAN_MOTION":13.16595104,"ECCENTRICITY":0.0002439,"INCLINATION":87.9109,"RA_OF_ASC_NODE":233.9269,"ARG_OF_PERICENTER":112.527,"MEAN_ANOMALY":247.612,"EPHEMERIS_TYPE":0,"CLASSIFICATION_TYPE":"U","NORAD_CAT_ID":56057,"ELEMENT_SET_NO":999,"REV_AT_EPOCH":15554,"BSTAR":0.00012031,"MEAN_MOTION_DOT":5.9e-07,"MEAN_MOTION_DDOT":0.0},{"OBJECT_NAME":"ONEWEB-0557","OBJECT_ID":"2023-043N","EPOCH":"2026-05-22T05:31:59.265120","MEAN_MOTION":13.16595725,"ECCENTRICITY":0.0003284,"INCLINATION":87.9106,"RA_OF_ASC_NODE":233.9347,"ARG_OF_PERICENTER":99.2747,"MEAN_ANOMALY":260.8756,"EPHEMERIS_TYPE":0,"CLASSIFICATION_TYPE":"U","NORAD_CAT_ID":56058,"ELEMENT_SET_NO":999,"REV_AT_EPOCH":15554,"BSTAR":0.00037067000000000003,"MEAN_MOTION_DOT":1.55e-06,"MEAN_MOTION_DDOT":0.0}]