ONEWEB-0674             
1 55833U 23029AP  26142.22441609 -.00000146  00000+0 -42899-3 0  9990
2 55833  87.8928 294.8987 0002116  87.6746 272.4626 13.14502375156005
ONEWEB-0675             
1 55834U 23029AQ  26142.20208552 -.00000019  00000+0 -79115-4 0  9998
2 55834  87.9145 310.1581 0001726 102.8754 257.2571 13.19725325155494
ONEWEB-0720             
1 55835U 23029AR  26142.19418074  .00000028  00000+0  38682-4 0  9991
2 55835  87.9145 310.1603 0001561  85.7530 274.3782 13.19725822155416
ONEWEB-0537             
1 56046U 23043A   26142.20362682  .00000028  00000+0  39767-4 0  9992
2 56046  87.9106 233.9302 0002088 106.6410 253.4951 13.16596257155546
ONEWEB-0538             
1 56047U 23043B   26141.74131810 -.00000108  00000+0 -31692-3 0  9997
2 56047  87.9109 234.0242 0001797 106.1450 253.9879 13.16595571155496
ONEWEB-0546             
1 56048U 23043C   26142.18463509  .00000167  00000+0  40213-3 0  9992
2 56048  87.9108 233.9359 0002443 115.1412 244.9972 13.16595985155549
ONEWEB-0547             
1 56049U 23043D   26142.05715235  .00000094  00000+0  19567-3 0  9992
2 56049  87.9251 249.1726 0001783  99.7954 260.3382 13.21827647154770
ONEWEB-0548             
1 56050U 23043E   26142.20918391 -.00000028  00000+0 -10576-3 0  9999
2 56050  87.9103 233.9279 0002393  93.8599 266.2806 13.16594379155549
ONEWEB-0549             
1 56051U 23043F   26142.27836666  .00000011  00000+0 -40301-5 0  9993
2 56051  87.9250 249.1362 0001667 106.7810 253.3507 13.21827695154807
ONEWEB-0550             
1 56052U 23043G   26142.26491170  .00000009  00000+0 -95795-5 0  9994
2 56052  87.9249 249.1359 0002114  95.7889 264.3486 13.21824592154804
ONEWEB-0551             
1 56053U 23043H   26142.29573923 -.00000038  00000+0 -13451-3 0  9995
2 56053  87.8987 264.3862 0001533 101.9137 258.2165 13.15546852152998
ONEWEB-0552             
1 56054U 23043J   26142.25987686  .00000124  00000+0  26775-3 0  9994
2 56054  87.9252 249.1430 0001860  95.3315 264.8032 13.21825280154804
ONEWEB-0553             
1 56055U 23043K   26142.26695766  .00000098  00000+0  22230-3 0  9993
2 56055  87.9106 233.9205 0002348 107.4455 252.6932 13.16596168155568
ONEWEB-0554             
1 56056U 23043L   26142.17830178  .00000194  00000+0  47444-3 0  9993
2 56056  87.9105 233.9475 0002315  97.4083 262.7311 13.16596129155533
ONEWEB-0555             
1 56057U 23043M   26142.21631178  .00000059  00000+0  12031-3 0  9992
2 56057  87.9109 233.9269 0002439 112.5270 247.6120 13.16595104155546
ONEWEB-0557             
1 56058U 23043N   26142.23054705  .00000155  00000+0  37067-3 0  9993
2 56058  87.9106 233.9347 0003284  99.2747 260.8756 13.16595725155541
